{"epoch":1784710044,"count":18256,"objects":[{"id":"68882","name":"KUIPER-00500","type":"PAYLOAD","l1":"1 68882U 26095U   26202.40301964  .00002487  00000-0  35496-3 0  9994","l2":"2 68882  51.9016  99.3550 0001500  58.6472 301.4637 14.79950813 12683"},{"id":"68883","name":"KUIPER-00502","type":"PAYLOAD","l1":"1 68883U 26095V   26202.58335648 -.01146414  00000-0 -69551-1 0  9999","l2":"2 68883  51.8900  76.9035 0005316  51.3256 137.1709 15.13013753  3094"},{"id":"68884","name":"KUIPER-00503","type":"PAYLOAD","l1":"1 68884U 26095W   26202.10180010  .00002292  00000-0  32932-3 0  9996","l2":"2 68884  51.8981  98.1760 0000898 103.4932 256.6131 14.79962912 12676"},{"id":"68885","name":"KUIPER-00504","type":"PAYLOAD","l1":"1 68885U 26095X   26202.46516883  .00002661  00000-0  37782-3 0  9995","l2":"2 68885  51.9026 104.0811 0000968  88.2108 271.8965 14.79944935 12629"},{"id":"68886","name":"KUIPER-00505","type":"PAYLOAD","l1":"1 68886U 26095Y   26201.96946070  .00002041  00000-0  29660-3 0  9993","l2":"2 68886  51.9026  96.2755 0000720 100.0045 260.0999 14.79949157 12682"},{"id":"68887","name":"KUIPER-00507","type":"PAYLOAD","l1":"1 68887U 26095Z   26202.58335648  .00032874  00000-0  46952-2 0  9995","l2":"2 68887  51.8999  83.3244 0001317  28.6377 153.8620 14.76398604  5782"},{"id":"68888","name":"KUIPER-00511","type":"PAYLOAD","l1":"1 68888U 26095AA  26202.58335648  .00036117  00000-0  24475-2 0  9996","l2":"2 68888  51.8954  77.5851 0005190  34.2359 120.9838 15.06119290  2485"},{"id":"68889","name":"KUIPER-00512","type":"PAYLOAD","l1":"1 68889U 26095AB  26202.40572681  .00002410  00000-0  34489-3 0  9994","l2":"2 68889  51.9027  96.8475 0000833 105.7685 254.3370 14.79941551 12711"},{"id":"68890","name":"KUIPER-00519","type":"PAYLOAD","l1":"1 68890U 26095AC  26202.41650846  .00002260  00000-0  32516-3 0  9999","l2":"2 68890  51.9031  86.8592 0002800  32.2826 327.8308 14.79960710 12854"},{"id":"68891","name":"KUIPER-00521","type":"PAYLOAD","l1":"1 68891U 26095AD  26202.58335648  .00013331  00000-0  14866-2 0  9996","l2":"2 68891  51.9001  79.9602 0001055 248.1749 216.6389 14.87289725  5541"},{"id":"68892","name":"KUIPER-00524","type":"PAYLOAD","l1":"1 68892U 26095AE  26202.41478042  .00001380  00000-0  22725-3 0  9990","l2":"2 68892  51.8992  88.2686 0002349 119.6871 240.4324 14.76421348 12831"},{"id":"68919","name":"KUIPER-00370","type":"PAYLOAD","l1":"1 68919U 26098A   26202.58335648 -.00035803  00000-0 -27433-2 0  9994","l2":"2 68919  51.8852 266.7185 0011598 280.4004 209.7823 15.01265908  5903"},{"id":"68920","name":"KUIPER-00380","type":"PAYLOAD","l1":"1 68920U 26098B   26202.57221073 -.00016105  00000-0 -55227-3 0  9998","l2":"2 68920  51.8752 263.8998 0008561 280.5124  79.4894 15.28968115 12608"},{"id":"68921","name":"KUIPER-00386","type":"PAYLOAD","l1":"1 68921U 26098C   26202.58335648 -.02226074  00000-0 -13134+0 0  9991","l2":"2 68921  51.8873 262.5118 0002933  19.6824   9.9987 15.14590125  5035"},{"id":"68922","name":"KUIPER-00388","type":"PAYLOAD","l1":"1 68922U 26098D   26202.58335648  .00028947  00000-0  41406-2 0  9993","l2":"2 68922  51.8999 270.9018 0001583  66.6378 339.8346 14.76395920  4893"},{"id":"68923","name":"KUIPER-00405","type":"PAYLOAD","l1":"1 68923U 26098E   26202.58335648 -.00006505  00000-0 -78328-3 0  9996","l2":"2 68923  51.9009 268.4642 0002477  29.1806 162.7755 14.82075947  5760"}]}