{"fetched_at":"2026-07-22T07:09:20.374Z","source":"https://celestrak.org/NORAD/elements/gp.php?GROUP=kuiper&FORMAT=JSON","constellation":"kuiper","records":[{"OBJECT_NAME":"KUIPER-00500","OBJECT_ID":"2026-095U","EPOCH":"2026-07-21T09:40:20.896896","CLASSIFICATION_TYPE":"U","MEAN_MOTION":14.79950813,"ECCENTRICITY":0.00014997,"INCLINATION":51.9016,"RA_OF_ASC_NODE":99.355,"ARG_OF_PERICENTER":58.6472,"MEAN_ANOMALY":301.4637,"EPHEMERIS_TYPE":0,"NORAD_CAT_ID":68882,"ELEMENT_SET_NO":999,"REV_AT_EPOCH":1268,"BSTAR":0.00035496169,"MEAN_MOTION_DOT":0.00002487,"MEAN_MOTION_DDOT":0},{"OBJECT_NAME":"KUIPER-00502","OBJECT_ID":"2026-095V","EPOCH":"2026-07-21T14:00:01.999872","CLASSIFICATION_TYPE":"U","MEAN_MOTION":15.13013753,"ECCENTRICITY":0.00053163,"INCLINATION":51.89,"RA_OF_ASC_NODE":76.9035,"ARG_OF_PERICENTER":51.3256,"MEAN_ANOMALY":137.1709,"EPHEMERIS_TYPE":0,"NORAD_CAT_ID":68883,"ELEMENT_SET_NO":999,"REV_AT_EPOCH":309,"BSTAR":-0.069551131,"MEAN_MOTION_DOT":-0.01146414,"MEAN_MOTION_DDOT":0},{"OBJECT_NAME":"KUIPER-00503","OBJECT_ID":"2026-095W","EPOCH":"2026-07-21T02:26:35.528640","CLASSIFICATION_TYPE":"U","MEAN_MOTION":14.79962912,"ECCENTRICITY":0.00008976,"INCLINATION":51.8981,"RA_OF_ASC_NODE":98.176,"ARG_OF_PERICENTER":103.4932,"MEAN_ANOMALY":256.6131,"EPHEMERIS_TYPE":0,"NORAD_CAT_ID":68884,"ELEMENT_SET_NO":999,"REV_AT_EPOCH":1267,"BSTAR":0.00032931939,"MEAN_MOTION_DOT":0.00002292,"MEAN_MOTION_DDOT":0},{"OBJECT_NAME":"KUIPER-00504","OBJECT_ID":"2026-095X","EPOCH":"2026-07-21T11:09:50.586912","CLASSIFICATION_TYPE":"U","MEAN_MOTION":14.79944935,"ECCENTRICITY":0.00009676,"INCLINATION":51.9026,"RA_OF_ASC_NODE":104.0811,"ARG_OF_PERICENTER":88.2108,"MEAN_ANOMALY":271.8965,"EPHEMERIS_TYPE":0,"NORAD_CAT_ID":68885,"ELEMENT_SET_NO":999,"REV_AT_EPOCH":1262,"BSTAR":0.00037781771,"MEAN_MOTION_DOT":0.00002661,"MEAN_MOTION_DDOT":0},{"OBJECT_NAME":"KUIPER-00505","OBJECT_ID":"2026-095Y","EPOCH":"2026-07-20T23:16:01.404480","CLASSIFICATION_TYPE":"U","MEAN_MOTION":14.79949157,"ECCENTRICITY":0.00007198,"INCLINATION":51.9026,"RA_OF_ASC_NODE":96.2755,"ARG_OF_PERICENTER":100.0045,"MEAN_ANOMALY":260.0999,"EPHEMERIS_TYPE":0,"NORAD_CAT_ID":68886,"ELEMENT_SET_NO":999,"REV_AT_EPOCH":1268,"BSTAR":0.00029660001,"MEAN_MOTION_DOT":0.00002041,"MEAN_MOTION_DDOT":0},{"OBJECT_NAME":"KUIPER-00507","OBJECT_ID":"2026-095Z","EPOCH":"2026-07-21T14:00:01.999872","CLASSIFICATION_TYPE":"U","MEAN_MOTION":14.76398604,"ECCENTRICITY":0.00013172,"INCLINATION":51.8999,"RA_OF_ASC_NODE":83.3244,"ARG_OF_PERICENTER":28.6377,"MEAN_ANOMALY":153.862,"EPHEMERIS_TYPE":0,"NORAD_CAT_ID":68887,"ELEMENT_SET_NO":999,"REV_AT_EPOCH":578,"BSTAR":0.0046951767,"MEAN_MOTION_DOT":0.00032874,"MEAN_MOTION_DDOT":0},{"OBJECT_NAME":"KUIPER-00511","OBJECT_ID":"2026-095AA","EPOCH":"2026-07-21T14:00:01.999872","CLASSIFICATION_TYPE":"U","MEAN_MOTION":15.0611929,"ECCENTRICITY":0.00051903,"INCLINATION":51.8954,"RA_OF_ASC_NODE":77.5851,"ARG_OF_PERICENTER":34.2359,"MEAN_ANOMALY":120.9838,"EPHEMERIS_TYPE":0,"NORAD_CAT_ID":68888,"ELEMENT_SET_NO":999,"REV_AT_EPOCH":248,"BSTAR":0.0024475275,"MEAN_MOTION_DOT":0.00036117,"MEAN_MOTION_DDOT":0},{"OBJECT_NAME":"KUIPER-00512","OBJECT_ID":"2026-095AB","EPOCH":"2026-07-21T09:44:14.796384","CLASSIFICATION_TYPE":"U","MEAN_MOTION":14.79941551,"ECCENTRICITY":0.00008335,"INCLINATION":51.9027,"RA_OF_ASC_NODE":96.8475,"ARG_OF_PERICENTER":105.7685,"MEAN_ANOMALY":254.337,"EPHEMERIS_TYPE":0,"NORAD_CAT_ID":68889,"ELEMENT_SET_NO":999,"REV_AT_EPOCH":1271,"BSTAR":0.00034489262,"MEAN_MOTION_DOT":0.0000241,"MEAN_MOTION_DDOT":0},{"OBJECT_NAME":"KUIPER-00519","OBJECT_ID":"2026-095AC","EPOCH":"2026-07-21T09:59:46.330944","CLASSIFICATION_TYPE":"U","MEAN_MOTION":14.7996071,"ECCENTRICITY":0.00028001,"INCLINATION":51.9031,"RA_OF_ASC_NODE":86.8592,"ARG_OF_PERICENTER":32.2826,"MEAN_ANOMALY":327.8308,"EPHEMERIS_TYPE":0,"NORAD_CAT_ID":68890,"ELEMENT_SET_NO":999,"REV_AT_EPOCH":1285,"BSTAR":0.00032515956,"MEAN_MOTION_DOT":0.0000226,"MEAN_MOTION_DDOT":0},{"OBJECT_NAME":"KUIPER-00521","OBJECT_ID":"2026-095AD","EPOCH":"2026-07-21T14:00:01.999872","CLASSIFICATION_TYPE":"U","MEAN_MOTION":14.87289725,"ECCENTRICITY":0.00010548,"INCLINATION":51.9001,"RA_OF_ASC_NODE":79.9602,"ARG_OF_PERICENTER":248.1749,"MEAN_ANOMALY":216.6389,"EPHEMERIS_TYPE":0,"NORAD_CAT_ID":68891,"ELEMENT_SET_NO":999,"REV_AT_EPOCH":554,"BSTAR":0.0014865674,"MEAN_MOTION_DOT":0.00013331,"MEAN_MOTION_DDOT":0},{"OBJECT_NAME":"KUIPER-00524","OBJECT_ID":"2026-095AE","EPOCH":"2026-07-21T09:57:17.028288","CLASSIFICATION_TYPE":"U","MEAN_MOTION":14.76421348,"ECCENTRICITY":0.0002349,"INCLINATION":51.8992,"RA_OF_ASC_NODE":88.2686,"ARG_OF_PERICENTER":119.6871,"MEAN_ANOMALY":240.4324,"EPHEMERIS_TYPE":0,"NORAD_CAT_ID":68892,"ELEMENT_SET_NO":999,"REV_AT_EPOCH":1283,"BSTAR":0.0002272521,"MEAN_MOTION_DOT":0.0000138,"MEAN_MOTION_DDOT":0},{"OBJECT_NAME":"KUIPER-00370","OBJECT_ID":"2026-098A","EPOCH":"2026-07-21T14:00:01.999872","CLASSIFICATION_TYPE":"U","MEAN_MOTION":15.01265908,"ECCENTRICITY":0.00115982,"INCLINATION":51.8852,"RA_OF_ASC_NODE":266.7185,"ARG_OF_PERICENTER":280.4004,"MEAN_ANOMALY":209.7823,"EPHEMERIS_TYPE":0,"NORAD_CAT_ID":68919,"ELEMENT_SET_NO":999,"REV_AT_EPOCH":590,"BSTAR":-0.0027432892,"MEAN_MOTION_DOT":-0.00035803,"MEAN_MOTION_DDOT":0},{"OBJECT_NAME":"KUIPER-00380","OBJECT_ID":"2026-098B","EPOCH":"2026-07-21T13:43:59.007072","CLASSIFICATION_TYPE":"U","MEAN_MOTION":15.28968115,"ECCENTRICITY":0.00085608,"INCLINATION":51.8752,"RA_OF_ASC_NODE":263.8998,"ARG_OF_PERICENTER":280.5124,"MEAN_ANOMALY":79.4894,"EPHEMERIS_TYPE":0,"NORAD_CAT_ID":68920,"ELEMENT_SET_NO":999,"REV_AT_EPOCH":1260,"BSTAR":-0.0005522712,"MEAN_MOTION_DOT":-0.00016105,"MEAN_MOTION_DDOT":0},{"OBJECT_NAME":"KUIPER-00386","OBJECT_ID":"2026-098C","EPOCH":"2026-07-21T14:00:01.999872","CLASSIFICATION_TYPE":"U","MEAN_MOTION":15.14590125,"ECCENTRICITY":0.00029334,"INCLINATION":51.8873,"RA_OF_ASC_NODE":262.5118,"ARG_OF_PERICENTER":19.6824,"MEAN_ANOMALY":9.9987,"EPHEMERIS_TYPE":0,"NORAD_CAT_ID":68921,"ELEMENT_SET_NO":999,"REV_AT_EPOCH":503,"BSTAR":-0.13133732,"MEAN_MOTION_DOT":-0.02226074,"MEAN_MOTION_DDOT":0},{"OBJECT_NAME":"KUIPER-00388","OBJECT_ID":"2026-098D","EPOCH":"2026-07-21T14:00:01.999872","CLASSIFICATION_TYPE":"U","MEAN_MOTION":14.7639592,"ECCENTRICITY":0.00015828,"INCLINATION":51.8999,"RA_OF_ASC_NODE":270.9018,"ARG_OF_PERICENTER":66.6378,"MEAN_ANOMALY":339.8346,"EPHEMERIS_TYPE":0,"NORAD_CAT_ID":68922,"ELEMENT_SET_NO":999,"REV_AT_EPOCH":489,"BSTAR":0.0041406312,"MEAN_MOTION_DOT":0.00028947,"MEAN_MOTION_DDOT":0},{"OBJECT_NAME":"KUIPER-00405","OBJECT_ID":"2026-098E","EPOCH":"2026-07-21T14:00:01.999872","CLASSIFICATION_TYPE":"U","MEAN_MOTION":14.82075947,"ECCENTRICITY":0.00024767,"INCLINATION":51.9009,"RA_OF_ASC_NODE":268.4642,"ARG_OF_PERICENTER":29.1806,"MEAN_ANOMALY":162.7755,"EPHEMERIS_TYPE":0,"NORAD_CAT_ID":68923,"ELEMENT_SET_NO":999,"REV_AT_EPOCH":576,"BSTAR":-0.00078328219,"MEAN_MOTION_DOT":-0.00006505,"MEAN_MOTION_DDOT":0}]}
